[{"OBJECT_NAME":"SCS-01 B","OBJECT_ID":"2025-100B","EPOCH":"2026-03-09T21:49:11.508672","MEAN_MOTION":15.3317485,"ECCENTRICITY":0.00088698,"INCLINATION":97.3706,"RA_OF_ASC_NODE":145.9041,"ARG_OF_PERICENTER":288.6157,"MEAN_ANOMALY":71.4122,"EPHEMERIS_TYPE":0,"CLASSIFICATION_TYPE":"U","NORAD_CAT_ID":63983,"ELEMENT_SET_NO":999,"REV_AT_EPOCH":4567,"BSTAR":0.00098809397,"MEAN_MOTION_DOT":0.00031724,"MEAN_MOTION_DDOT":0},{"OBJECT_NAME":"STARLINK-35609","OBJECT_ID":"2025-236Q","EPOCH":"2026-03-09T13:47:15.758880","MEAN_MOTION":15.30182801,"ECCENTRICITY":0.0001396,"INCLINATION":53.1584,"RA_OF_ASC_NODE":104.64,"ARG_OF_PERICENTER":83.3589,"MEAN_ANOMALY":276.757,"EPHEMERIS_TYPE":0,"CLASSIFICATION_TYPE":"U","NORAD_CAT_ID":66100,"ELEMENT_SET_NO":999,"REV_AT_EPOCH":2286,"BSTAR":0.00095004,"MEAN_MOTION_DOT":0.00027869,"MEAN_MOTION_DDOT":0}]
